[{"OBJECT_NAME":"STARLINK-5654","OBJECT_ID":"2023-013AM","EPOCH":"2026-03-09T22:00:01.999584","MEAN_MOTION":15.11289657,"ECCENTRICITY":0.00012041,"INCLINATION":42.9998,"RA_OF_ASC_NODE":285.8425,"ARG_OF_PERICENTER":309.6832,"MEAN_ANOMALY":152.3677,"EPHEMERIS_TYPE":0,"CLASSIFICATION_TYPE":"U","NORAD_CAT_ID":55366,"ELEMENT_SET_NO":999,"REV_AT_EPOCH":567,"BSTAR":0.0043604859,"MEAN_MOTION_DOT":0.00075271,"MEAN_MOTION_DDOT":0},{"OBJECT_NAME":"PVCC","OBJECT_ID":"2023-155K","EPOCH":"2026-03-09T22:53:45.550752","MEAN_MOTION":15.14680593,"ECCENTRICITY":0.00057691,"INCLINATION":97.5765,"RA_OF_ASC_NODE":145.8322,"ARG_OF_PERICENTER":112.5424,"MEAN_ANOMALY":247.6419,"EPHEMERIS_TYPE":0,"CLASSIFICATION_TYPE":"U","NORAD_CAT_ID":58025,"ELEMENT_SET_NO":999,"REV_AT_EPOCH":13295,"BSTAR":0.00050695822,"MEAN_MOTION_DOT":9.322e-5,"MEAN_MOTION_DDOT":0}]
